CTC1_L_00151001-01
1 10000U 24971DA  26075.70031250  .00000000  00000+0  00000-0 0  9991
2 10000  70.0000   0.0000 0000000   0.0000   0.0000 14.06899812    19
CTC1_L_00151001-02
1 10001U 24393GB  26075.70031250  .00000000  00000+0  00000-0 0  9990
2 10001  70.0000   0.0000 0000000   0.0000  90.0000 14.06899812    19
CTC1_L_00151001-03
1 10002U 23482SF  26075.70031250  .00000000  00000+0  00000-0 0  9999
2 10002  70.0000   0.0000 0000000   0.0000 180.0000 14.06899812    10
CTC1_L_00151001-04
1 10003U 25332P   26075.70031250  .00000000  00000+0  00000-0 0  9996
2 10003  70.0000   0.0000 0000000   0.0000 270.0000 14.06899812    11
CTC1_L_00151002-01
1 10004U 22392OV  26075.70031250  .00000000  00000+0  00000-0 0  9990
2 10004  70.0000  12.0000 0000000   0.0000  12.0000 14.06899812    19
CTC1_L_00151002-02
1 10005U 26626VN  26075.70031250  .00000000  00000+0  00000-0 0  9995
2 10005  70.0000  12.0000 0000000   0.0000 102.0000 14.06899812    10
CTC1_L_00151002-03
1 10006U 24018EG  26075.70031250  .00000000  00000+0  00000-0 0  9999
2 10006  70.0000  12.0000 0000000   0.0000 192.0000 14.06899812    10
CTC1_L_00151002-04
1 10007U 22512NA  26075.70031250  .00000000  00000+0  00000-0 0  9997
2 10007  70.0000  12.0000 0000000   0.0000 282.0000 14.06899812    11
CTC1_L_00151003-01
1 10008U 26624XW  26075.70031250  .00000000  00000+0  00000-0 0  9996
2 10008  70.0000  24.0000 0000000   0.0000  24.0000 14.06899812    19
CTC1_L_00151003-02
1 10009U 22559FY  26075.70031250  .00000000  00000+0  00000-0 0  9990
2 10009  70.0000  24.0000 0000000   0.0000 114.0000 14.06899812    10
CTC1_L_00151003-03
1 10010U 26589GL  26075.70031250  .00000000  00000+0  00000-0 0  9999
2 10010  70.0000  24.0000 0000000   0.0000 204.0000 14.06899812    12
CTC1_L_00151003-04
1 10011U 24760KZ  26075.70031250  .00000000  00000+0  00000-0 0  9999
2 10011  70.0000  24.0000 0000000   0.0000 294.0000 14.06899812    12
CTC1_L_00151004-01
1 10012U 23252ZD  26075.70031250  .00000000  00000+0  00000-0 0  9995
2 10012  70.0000  36.0000 0000000   0.0000  36.0000 14.06899812    10
CTC1_L_00151004-02
1 10013U 22944BT  26075.70031250  .00000000  00000+0  00000-0 0  9993
2 10013  70.0000  36.0000 0000000   0.0000 126.0000 14.06899812    11
CTC1_L_00151004-03
1 10014U 26653XA  26075.70031250  .00000000  00000+0  00000-0 0  9995
2 10014  70.0000  36.0000 0000000   0.0000 216.0000 14.06899812    12
CTC1_L_00151004-04
1 10015U 24664SY  26075.70031250  .00000000  00000+0  00000-0 0  9996
2 10015  70.0000  36.0000 0000000   0.0000 306.0000 14.06899812    13
CTC1_L_00151005-01
1 10016U 22352IR  26075.70031250  .00000000  00000+0  00000-0 0  9999
2 10016  70.0000  48.0000 0000000   0.0000  48.0000 14.06899812    10
CTC1_L_00151005-02
1 10017U 24754TF  26075.70031250  .00000000  00000+0  00000-0 0  9998
2 10017  70.0000  48.0000 0000000   0.0000 138.0000 14.06899812    11
CTC1_L_00151005-03
1 10018U 26571NS  26075.70031250  .00000000  00000+0  00000-0 0  9998
2 10018  70.0000  48.0000 0000000   0.0000 228.0000 14.06899812    12
CTC1_L_00151005-04
1 10019U 24032C   26075.70031250  .00000000  00000+0  00000-0 0  9999
2 10019  70.0000  48.0000 0000000   0.0000 318.0000 14.06899812    13
CTC1_L_00151006-01
1 10020U 23111WA  26075.70031250  .00000000  00000+0  00000-0 0  9998
2 10020  70.0000  60.0000 0000000   0.0000  60.0000 14.06899812    13
CTC1_L_00151006-02
1 10021U 24125AC  26075.70031250  .00000000  00000+0  00000-0 0  9995
2 10021  70.0000  60.0000 0000000   0.0000 150.0000 14.06899812    14
CTC1_L_00151006-03
1 10022U 24035WU  26075.70031250  .00000000  00000+0  00000-0 0  9996
2 10022  70.0000  60.0000 0000000   0.0000 240.0000 14.06899812    15
CTC1_L_00151006-04
1 10023U 25001SG  26075.70031250  .00000000  00000+0  00000-0 0  9991
2 10023  70.0000  60.0000 0000000   0.0000 330.0000 14.06899812    16
CTC1_L_00151007-01
1 10024U 22982TP  26075.70031250  .00000000  00000+0  00000-0 0  9997
2 10024  70.0000  72.0000 0000000   0.0000  72.0000 14.06899812    13
CTC1_L_00151007-02
1 10025U 23846TW  26075.70031250  .00000000  00000+0  00000-0 0  9998
2 10025  70.0000  72.0000 0000000   0.0000 162.0000 14.06899812    14
CTC1_L_00151007-03
1 10026U 26524UO  26075.70031250  .00000000  00000+0  00000-0 0  9995
2 10026  70.0000  72.0000 0000000   0.0000 252.0000 14.06899812    15
CTC1_L_00151007-04
1 10027U 22996DS  26075.70031250  .00000000  00000+0  00000-0 0  9995
2 10027  70.0000  72.0000 0000000   0.0000 342.0000 14.06899812    16
CTC1_L_00151008-01
1 10028U 22842NY  26075.70031250  .00000000  00000+0  00000-0 0  9996
2 10028  70.0000  84.0000 0000000   0.0000  84.0000 14.06899812    13
CTC1_L_00151008-02
1 10029U 25504UQ  26075.70031250  .00000000  00000+0  00000-0 0  9995
2 10029  70.0000  84.0000 0000000   0.0000 174.0000 14.06899812    14
CTC1_L_00151008-03
1 10030U 26575KJ  26075.70031250  .00000000  00000+0  00000-0 0  9996
2 10030  70.0000  84.0000 0000000   0.0000 264.0000 14.06899812    16
CTC1_L_00151008-04
1 10031U 23431EW  26075.70031250  .00000000  00000+0  00000-0 0  9995
2 10031  70.0000  84.0000 0000000   0.0000 354.0000 14.06899812    17
CTC1_L_00151009-01
1 10032U 22763QN  26075.70031250  .00000000  00000+0  00000-0 0  9993
2 10032  70.0000  96.0000 0000000   0.0000  96.0000 14.06899812    14
CTC1_L_00151009-02
1 10033U 22992QW  26075.70031250  .00000000  00000+0  00000-0 0  9998
2 10033  70.0000  96.0000 0000000   0.0000 186.0000 14.06899812    15
CTC1_L_00151009-03
1 10034U 22954EC  26075.70031250  .00000000  00000+0  00000-0 0  9997
2 10034  70.0000  96.0000 0000000   0.0000 276.0000 14.06899812    16
CTC1_L_00151009-04
1 10035U 24845PC  26075.70031250  .00000000  00000+0  00000-0 0  9999
2 10035  70.0000  96.0000 0000000   0.0000   6.0000 14.06899812    18
CTC1_L_00151010-01
1 10036U 24020JL  26075.70031250  .00000000  00000+0  00000-0 0  9995
2 10036  70.0000 108.0000 0000000   0.0000 108.0000 14.06899812    16
CTC1_L_00151010-02
1 10037U 23882DA  26075.70031250  .00000000  00000+0  00000-0 0  9991
2 10037  70.0000 108.0000 0000000   0.0000 198.0000 14.06899812    16
CTC1_L_00151010-03
1 10038U 22520LG  26075.70031250  .00000000  00000+0  00000-0 0  9990
2 10038  70.0000 108.0000 0000000   0.0000 288.0000 14.06899812    17
CTC1_L_00151010-04
1 10039U 23830XW  26075.70031250  .00000000  00000+0  00000-0 0  9996
2 10039  70.0000 108.0000 0000000   0.0000  18.0000 14.06899812    19
CTC1_L_00151011-01
1 10040U 22493FS  26075.70031250  .00000000  00000+0  00000-0 0  9992
2 10040  70.0000 120.0000 0000000   0.0000 120.0000 14.06899812    19
CTC1_L_00151011-02
1 10041U 26232EP  26075.70031250  .00000000  00000+0  00000-0 0  9998
2 10041  70.0000 120.0000 0000000   0.0000 210.0000 14.06899812    10
CTC1_L_00151011-03
1 10042U 24290BO  26075.70031250  .00000000  00000+0  00000-0 0  9991
2 10042  70.0000 120.0000 0000000   0.0000 300.0000 14.06899812    11
CTC1_L_00151011-04
1 10043U 23320HB  26075.70031250  .00000000  00000+0  00000-0 0  9995
2 10043  70.0000 120.0000 0000000   0.0000  30.0000 14.06899812    12
CTC1_L_00151012-01
1 10044U 23556DW  26075.70031250  .00000000  00000+0  00000-0 0  9997
2 10044  70.0000 132.0000 0000000   0.0000 132.0000 14.06899812    19
CTC1_L_00151012-02
1 10045U 24602DD  26075.70031250  .00000000  00000+0  00000-0 0  9991
2 10045  70.0000 132.0000 0000000   0.0000 222.0000 14.06899812    10
CTC1_L_00151012-03
1 10046U 25467EH  26075.70031250  .00000000  00000+0  00000-0 0  9992
2 10046  70.0000 132.0000 0000000   0.0000 312.0000 14.06899812    11
CTC1_L_00151012-04
1 10047U 24592LJ  26075.70031250  .00000000  00000+0  00000-0 0  9991
2 10047  70.0000 132.0000 0000000   0.0000  42.0000 14.06899812    12
CTC1_L_00151013-01
1 10048U 26836TP  26075.70031250  .00000000  00000+0  00000-0 0  9995
2 10048  70.0000 144.0000 0000000   0.0000 144.0000 14.06899812    19
CTC1_L_00151013-02
1 10049U 26924QQ  26075.70031250  .00000000  00000+0  00000-0 0  9994
2 10049  70.0000 144.0000 0000000   0.0000 234.0000 14.06899812    10
CTC1_L_00151013-03
1 10050U 24690CK  26075.70031250  .00000000  00000+0  00000-0 0  9994
2 10050  70.0000 144.0000 0000000   0.0000 324.0000 14.06899812    12
CTC1_L_00151013-04
1 10051U 25798GE  26075.70031250  .00000000  00000+0  00000-0 0  9995
2 10051  70.0000 144.0000 0000000   0.0000  54.0000 14.06899812    13
CTC1_L_00151014-01
1 10052U 26912JB  26075.70031250  .00000000  00000+0  00000-0 0  9995
2 10052  70.0000 156.0000 0000000   0.0000 156.0000 14.06899812    10
CTC1_L_00151014-02
1 10053U 26095LE  26075.70031250  .00000000  00000+0  00000-0 0  9998
2 10053  70.0000 156.0000 0000000   0.0000 246.0000 14.06899812    11
CTC1_L_00151014-03
1 10054U 24892MY  26075.70031250  .00000000  00000+0  00000-0 0  9992
2 10054  70.0000 156.0000 0000000   0.0000 336.0000 14.06899812    12
CTC1_L_00151014-04
1 10055U 26865LS  26075.70031250  .00000000  00000+0  00000-0 0  9995
2 10055  70.0000 156.0000 0000000   0.0000  66.0000 14.06899812    13
CTC1_L_00151015-01
1 10056U 23887PK  26075.70031250  .00000000  00000+0  00000-0 0  9997
2 10056  70.0000 168.0000 0000000   0.0000 168.0000 14.06899812    10
CTC1_L_00151015-02
1 10057U 26406OJ  26075.70031250  .00000000  00000+0  00000-0 0  9998
2 10057  70.0000 168.0000 0000000   0.0000 258.0000 14.06899812    11
CTC1_L_00151015-03
1 10058U 24534AK  26075.70031250  .00000000  00000+0  00000-0 0  9999
2 10058  70.0000 168.0000 0000000   0.0000 348.0000 14.06899812    12
CTC1_L_00151015-04
1 10059U 24425IJ  26075.70031250  .00000000  00000+0  00000-0 0  9999
2 10059  70.0000 168.0000 0000000   0.0000  78.0000 14.06899812    13
CTC1_L_00151016-01
1 10060U 24532YK  26075.70031250  .00000000  00000+0  00000-0 0  9990
2 10060  70.0000 180.0000 0000000   0.0000 180.0000 14.06899812    13
CTC1_L_00151016-02
1 10061U 23924ET  26075.70031250  .00000000  00000+0  00000-0 0  9995
2 10061  70.0000 180.0000 0000000   0.0000 270.0000 14.06899812    14
